#aV2013  9 11  0  0  0.00000000     288 DD+AD WGS84 FIT  NGA
## 1757 259200.00000000   300.00000000 56546 0.0000000000000
+   31     1  2  3  4  5  6  7  8  9 10 11 12 13 14 15 16 17
+         18 19 20 21 22 23 24 25 26 27 28 29 31 32  0  0  0
+          0  0  0  0  0  0  0  0  0  0  0  0  0  0  0  0  0
+          0  0  0  0  0  0  0  0  0  0  0  0  0  0  0  0  0
+          0  0  0  0  0  0  0  0  0  0  0  0  0  0  0  0  0
++         2  2  2  2  2  2  2  2  2  2  2  2  2  2  2  2  2
++         2  2  2  2  2  2  2  2  2  2  2  2  2  2  2  0  0
++         0  0  0  0  0  0  0  0  0  0  0  0  0  0  0  0  0
++         0  0  0  0  0  0  0  0  0  0  0  0  0  0  0  0  0
++         0  0  0  0  0  0  0  0  0  0  0  0  0  0  0  0  0
%c cc cc ccc ccc cccc cccc cccc cccc ccccc ccccc ccccc ccccc
%c cc cc ccc ccc cccc cccc cccc cccc ccccc ccccc ccccc ccccc
%f  0.0000000  0.000000000  0.00000000000  0.000000000000000
%f  0.0000000  0.000000000  0.00000000000  0.000000000000000
%i    0    0    0    0      0      0      0      0         0
%i    0    0    0    0      0      0      0      0         0
/*      NGA, ST. LOUIS,MO.                                  
/*   EPHEMERIS COMPUTED FROM  1 DAYS OF DATA
/*   EPOCHA SMOOTHER  
/* CCCCCCCCCCCCCCCCCCCCCCCCCCCCCCCCCCCCCCCCCCCCCCCCCCCCCCCCC
*  2013  9 11  9 10  0.00000000                                                 
P  1 -22613.814138 -13814.691856  -2533.213460     73.506462                    
V  1   4070.526521   -935.405916 -31469.780095      0.041804                    
P  2   3919.985514  17914.420004  19603.792544    450.792923                    
V  2 -22341.056536  -9704.753821  12986.270197      0.017816                    
P  3   -315.601910 -18642.471243 -19385.247402    257.996702                    
V  3  18916.484595 -14273.118803  13995.950556      0.051606                    
P  4 -10368.896619  12005.949548  21030.749063      0.450655                    
V  4 -24247.510889 -12883.138029  -4272.130471      0.006872                    
P  5   1860.128251  26399.713741   -835.532980   -399.654759                    
V  5  -3292.961623   1193.243429  31550.238772      0.000753                    
P  6   7310.475492 -19732.987354 -15913.678603     48.122991                    
V  6  18049.877007 -10101.069524  21113.997167      0.191438                    
P  7 -23657.335487  -3886.541139 -11719.700173    257.383054                    
V  7 -12156.080010  -8678.528416  26970.764226      0.042286                    
P  8 -17718.391259   3283.943072 -19603.121191      8.366630                    
V  8 -20338.437542 -14329.977660  15289.511769      0.002364                    
P  9 -17384.242919   5825.336206 -19797.733510    267.649603                    
V  9 -20851.120740 -11689.405225  15165.482956      0.026539                    
P 10  -9732.704252  19783.412135  14196.226419    -94.047444                    
V 10  -3436.973237 -18669.775044  23586.558286     -0.014403                    
P 11 -19689.863023 -13601.238803 -12243.967037   -418.689855                    
V 11  15381.198351  -1071.002355 -24224.831739     -0.035065                    
P 12  10709.153355  18507.759730  15842.472419    155.704119                    
V 12  -1093.148888  20081.664347 -22454.055662      0.021964                    
P 13 -23722.990788   3287.377531  11507.193301     81.079551                    
V 13  12348.792426  -8235.056920  27360.391322     -0.037760                    
P 14  20281.352283 -15882.429060   6344.390151    216.033671                    
V 14   8016.153608  -1573.846295 -30748.447858     -0.008934                    
P 15  12543.190287  10163.781756 -21147.762324   -136.547666                    
V 15 -21892.772269  15531.360562  -5264.970636     -0.018400                    
P 16   -415.732068 -26356.888684   -929.120169   -246.943046                    
V 16   2312.756154  -1132.618260  32497.087910      0.007769                    
P 17 -20884.075628  15660.882553   4369.796181    -20.223173                    
V 17  -5982.459033    270.547451 -31381.709606     -0.036962                    
P 18  15431.127535  -4014.103116 -20788.793840    273.505703                    
V 18   1989.646457  27490.369160  -4096.911280      0.020063                    
P 19  -7770.123285 -13105.508501 -21877.540149   -403.321786                    
V 19  24485.009539 -12499.336858   -796.278383     -0.028083                    
P 20 -14648.185637 -13155.676555  17685.548825    121.673061                    
V 20   -187.709706 -22987.910114 -17010.823435      0.025738                    
P 21  22921.593412    788.405693 -13225.365078   -318.122559                    
V 21  14414.611582  10514.508222  24029.834941     -0.018817                    
P 22  11643.153592 -17036.546335 -16440.548611    184.295899                    
V 22   3585.998665  21290.481090 -19432.167493      0.019155                    
P 23 -18518.425867  -4189.872663  18822.854089     49.222685                    
V 23  19361.647955 -13547.174746  15707.825037     -0.034730                    
P 24  20629.979300  15510.611778  -6381.650799    -13.537113                    
V 24  -8442.183019  -1236.521285 -30280.703243     -0.007139                    
P 25  14865.803168   4356.333417  21528.440793    146.006718                    
V 25    957.047622  27407.213370  -6094.933797      0.042226                    
P 26  -2936.245629  17134.085476 -20628.416191    184.694661                    
V 26 -22503.959603  10505.697006  12630.572499      0.181889                    
P 27   4402.120684 -18360.742266 -18686.251207    -35.168170                    
V 27  20730.124627 -11599.539597  16301.094781     -0.045913                    
P 28 -12476.464659  13532.941437 -18494.548306    291.628104                    
V 28  -1006.884496 -24740.094967 -17062.572021      0.031544                    
P 29  22392.294069  -1486.046313  14214.120032    469.735599                    
V 29 -14620.658422  10666.721276  24253.674650      0.031508                    
P 31   8778.541326 -12102.293232  22133.828492    325.597233                    
V 31  24160.945157  13389.979971  -2003.838123      0.008752                    
P 32  -8045.694188 -22364.921878  12497.049673   -549.518216                    
V 32   2838.586866 -15415.215855 -25464.347683      0.026039                    
EOF
